INTELSAT 10 (IS-10)     
1 26766U 01019A   26064.32553090 -.00000288  00000+0  00000+0 0  9990
2 26766   8.8280  60.3105 0005935 267.1133  91.9502  0.99041792 44549
INTELSAT 902 (IS-902)   
1 26900U 01039A   26064.92986290 -.00000287  00000+0  00000+0 0  9999
2 26900   5.8564  73.0406 0004602 273.8940 101.3804  1.00271990 89667
INTELSAT 904 (IS-904)   
1 27380U 02007A   26064.29173074 -.00000231  00000+0  00000+0 0  9995
2 27380   6.6608  70.4300 0006148 306.2151 219.9159  1.00273205 50729
DIRECTV 5 (TEMPO 1)     
1 27426U 02023A   26065.13194147 -.00000061  00000+0  00000+0 0  9993
2 27426   4.6147  76.5984 0003644 279.5674 105.0863  1.00272618 87095
INTELSAT 905 (IS-905)   
1 27438U 02027A   26064.18725306  .00000088  00000+0  00000+0 0  9999
2 27438   6.4927  71.0512 0003173 279.5390 102.5539  1.00273968 50320
GALAXY 3C (G-3C)        
1 27445U 02030A   26065.20621512 -.00000157  00000+0  00000+0 0  9997
2 27445   3.4686  79.4341 0001154  23.7034  40.1890  1.00271890 45468
INTELSAT 906 (IS-906)   
1 27513U 02041A   26065.16643495  .00000009  00000+0  00000+0 0  9999
2 27513   5.5407  74.1878 0003200 260.5331 313.2446  1.00273082 85998
GALAXY 13 (HORIZONS-1)  
1 27954U 03044A   26065.19529508  .00000128  00000+0  00000+0 0  9995
2 27954   1.1516  85.2674 0002186 263.4296  95.5190  1.00273378 45531
INTELSAT 10-02          
1 28358U 04022A   26065.22484854 -.00000016  00000+0  00000+0 0  9996
2 28358   0.0173 124.7566 0001119 267.8393 211.2758  1.00271985 79522
DIRECTV 8               
1 28659U 05019A   26065.27277542 -.00000004  00000+0  00000+0 0  9993
2 28659   0.0154 114.4642 0003321 246.1418 142.5232  1.00271965 76046
GALAXY 28 (G-28)        
1 28702U 05022A   26065.17933884 -.00000205  00000+0  00000+0 0  9996
2 28702   3.0327  80.2255 0002288 267.5035 213.6457  1.00271601 50940
GALAXY 16 (G-16)        
1 29236U 06023A   26065.18377969 -.00000132  00000+0  00000+0 0  9997
2 29236   0.0396 229.5755 0002672 120.3595 141.1129  1.00273185 71946
DIRECTV 9S              
1 29494U 06043A   26065.18377969 -.00000118  00000+0  00000+0 0  9999
2 29494   2.1549  82.1800 0003174 272.2182 134.4588  1.00272422 50355
GALAXY 17 (G-17)        
1 31307U 07016B   26065.17822755 -.00000211  00000+0  00000+0 0  9997
2 31307   2.7111  81.2174 0003329 268.5241 153.3200  1.00271870 68774
DIRECTV 10              
1 31862U 07032A   26065.22669632 -.00000051  00000+0  00000+0 0  9992
2 31862   0.1365 100.3445 0006680 275.2234 266.9551  0.98337773 44558
INTELSAT 11 (IS-11)     
1 32253U 07044B   26065.19702841  .00000047  00000+0  00000+0 0  9990
2 32253   3.2971  79.9379 0004910 206.8931 166.6289  0.99049752 67439
HORIZONS-2              
1 32388U 07063B   26065.17266987 -.00000258  00000+0  00000+0 0  9999
2 32388   2.3364  81.9310 0002786 261.0875 169.2382  1.00271297 66785
DIRECTV 11              
1 32729U 08013A   26065.20534845 -.00000131  00000+0  00000+0 0  9999
2 32729   0.0180 332.0370 0000293   7.6540 158.9621  1.00271804 44562
GALAXY 18 (G-18)        
1 32951U 08024A   26065.27199542  .00000000  00000+0  00000+0 0  9990
2 32951   0.0226 155.7057 0003248 216.9145 126.3102  1.00271679 44823
INTELSAT 25 (IS-25)     
1 33153U 08034A   26065.20124630 -.00000228  00000+0  00000+0 0  9998
2 33153   2.4419  81.5969 0003733 237.3509 245.9290  1.00272625 64668
GALAXY 19 (G-19)        
1 33376U 08045A   26065.18377969 -.00000144  00000+0  00000+0 0  9996
2 33376   0.0445 261.1257 0002791  86.4997 145.4309  1.00271475 63870
FM-5                    
1 35493U 09034A   26064.56613463 -.00000207  00000+0  00000+0 0  9990
2 35493   0.0380 271.4834 0000871 304.9900  64.4559  1.00272163 45607
INTELSAT 14 (IS-14)     
1 36097U 09064A   26064.85957594 -.00000280  00000+0  00000+0 0  9993
2 36097   0.0248  92.5236 0002374 252.0947  83.4189  1.00274449 59562
INTELSAT 15 (IS-15)     
1 36106U 09067A   26065.09926800  .00000000  00000+0  00000+0 0  9999
2 36106   0.0187 168.6392 0002373 190.7694 285.3100  1.00270090 40192
DIRECTV 12              
1 36131U 09075A   26065.18377969 -.00000109  00000+0  00000+0 0  9993
2 36131   0.0195 337.1647 0000361  42.2140 107.9700  1.00272270 45526
INTELSAT 16 (IS-16)     
1 36397U 10006A   26065.17266987 -.00000250  00000+0  00000+0 0  9996
2 36397   0.0204 112.5804 0002018 240.2762 156.9897  1.00272464 58623
XM-5                    
1 37185U 10053A   26064.63174160 -.00000030  00000+0  00000+0 0  9991
2 37185   0.0658 274.3985 0003484 253.1594 108.0167  1.00271669 56445
INTELSAT 17 (IS-17)     
1 37238U 10065B   26065.22267013 -.00000007  00000+0  00000+0 0  9993
2 37238   0.0169 183.5973 0002491 166.8887 319.6073  1.00272916 52214
INTELSAT 28 (IS-28)     
1 37392U 11016A   26065.18651661 -.00000230  00000+0  00000+0 0  9990
2 37392   1.5399  83.9610 0004626 261.6592 213.7252  1.00272064 52257
INTELSAT 18 (IS-18)     
1 37834U 11056A   26065.26072870  .00000048  00000+0  00000+0 0  9999
2 37834   0.0379 265.9124 0001921  78.0185  93.9005  1.00274400 52772
INTELSAT 22 (IS-22)     
1 38098U 12011A   26065.09666799 -.00000064  00000+0  00000+0 0  9993
2 38098   0.0028 173.3912 0001668 192.4141 264.9179  1.00271310  6154
INTELSAT 19 (IS-19)     
1 38356U 12030A   26064.57475457  .00000000  00000+0  00000+0 0  9991
2 38356   0.0248 145.0136 0003028 212.2815 178.9261  1.00265112 49415
INTELSAT 20 (IS-20)     
1 38740U 12043A   26064.55705715 -.00000032  00000+0  00000+0 0  9999
2 38740   0.0190 140.1706 0002357  26.1370 266.0165  1.00271907 49702
INTELSAT 21 (IS-21)     
1 38749U 12045A   26064.35777104 -.00000293  00000+0  00000+0 0  9998
2 38749   0.0301 254.8510 0001780  99.0784 239.9498  1.00270471 49486
INTELSAT 23 (IS-23)     
1 38867U 12057A   26065.28586214 -.00000290  00000+0  00000+0 0  9992
2 38867   0.0488 261.5961 0001213  93.7072 218.6039  1.00269975 48920
FM-6                    
1 39360U 13058A   26064.63156826 -.00000025  00000+0  00000+0 0  9999
2 39360   0.0240 127.8287 0002875  59.2462  87.4741  1.00276991 45032
INTELSAT 30 (IS-30)     
1 40271U 14062A   26064.84965330 -.00000157  00000+0  00000+0 0  9995
2 40271   0.0186  81.7272 0001495  27.0241 265.6525  1.00273148  5757
DIRECTV 14              
1 40333U 14078B   26064.63477494  .00000000  00000+0  00000+0 0  9993
2 40333   0.0223 140.6418 0000594 348.2371 163.7954  1.00271102 41006
DIRECTV 15              
1 40663U 15026A   26065.18377969 -.00000107  00000+0  00000+0 0  9999
2 40663   0.0240 102.4944 0000371 105.1907 279.4884  1.00270336 39438
SKY MEXICO-1            
1 40664U 15026B   26064.42495398 -.00000242  00000+0  00000+0 0  9993
2 40664   0.0200 125.8533 0002250 238.8701 232.6041  1.00269501 39418
INTELSAT 34 (IS-34)     
1 40874U 15039A   26065.19628160  .00000000  00000+0  00000+0 0  9991
2 40874   0.0148 175.6288 0000558 271.8662  91.6089  1.00267487 38598
INTELSAT 31 (IS-31)     
1 41581U 16035A   26065.18377969 -.00000156  00000+0  00000+0 0  9994
2 41581   0.0328 243.1779 0001579 352.3525 259.4775  1.00271168 35658
INTELSAT 36 (IS-36)     
1 41747U 16053A   26064.55705715 -.00000031  00000+0  00000+0 0  9994
2 41747   0.0200  99.8975 0001513 233.3854  99.0273  1.00269299 34917
INTELSAT 32E (IS-32E)   
1 41945U 17007B   26064.50338767 -.00000276  00000+0  00000+0 0  9999
2 41945   0.0110 118.1682 0000302 237.3310 305.7579  1.00275199 33183
INTELSAT 35E (IS-35E)   
1 42818U 17041A   26064.17683490 -.00000247  00000+0  00000+0 0  9994
2 42818   0.0257 241.7413 0002225 103.6087 206.6952  1.00270890 31772
INTELSAT 37E (IS-37E)   
1 42950U 17059A   26065.20155875 -.00000146  00000+0  00000+0 0  9994
2 42950   0.0201 142.8040 0002150 206.2734 229.3941  1.00271680 31038
AZERSPACE 2 (IS-38)     
1 43632U 18074A   26064.31642096  .00000000  00000+0  00000+0 0  9995
2 43632   0.0249 144.2303 0001446 216.1159 321.7363  1.00271143 27409
HORIZONS-3E             
1 43633U 18074B   26064.90195612 -.00000037  00000+0  00000+0 0  9999
2 43633   0.0160 332.6823 0000535  13.4082 311.2086  1.00271692 27307
AT&T T-16               
1 44333U 19034A   26064.99113649 -.00000121  00000+0  00000+0 0  9997
2 44333   0.0236 101.3996 0000890  62.4405 255.8141  1.00273702 24595
INTELSAT 39 (IS-39)     
1 44476U 19049B   26064.45286078  .00000000  00000+0  00000+0 0  9994
2 44476   0.0244 149.9814 0000721 354.7122 243.4677  1.00269682 24088
GALAXY 30 (G-30)        
1 46114U 20056C   26065.20023509  .00000000  00000+0  00000+0 0  9997
2 46114   0.0219 157.5266 0002051 197.8268 115.6677  1.00271496 20264
GALAXY 33 (G-33)        
1 54026U 22128A   26064.01780892  .00000000  00000+0  00000+0 0  9993
2 54026   0.0175 165.2977 0001884 177.9169  52.9895  1.00273895 12691
GALAXY 34 (G-34)        
1 54027U 22128B   26064.09072645  .00000050  00000+0  00000+0 0  9997
2 54027   0.0130 129.5428 0001376 217.6718  79.2813  1.00273187 12860
GALAXY 31 (G-31)        
1 54243U 22153A   26064.32405672  .00000005  00000+0  00000+0 0  9991
2 54243   0.0114 186.2478 0001490 168.2279 164.2342  1.00272772  6096
GALAXY 32 (G-32)        
1 54244U 22153B   26063.18586578  .00000000  00000+0  00000+0 0  9995
2 54244   0.0222 132.7365 0003004 225.3208 139.8078  1.00267915 12092
GALAXY 35 (G-35)        
1 54741U 22170A   26065.18377969 -.00000167  00000+0  00000+0 0  9995
2 54741   0.0105 186.7077 0002021 161.1903 149.0565  1.00270967 11869
GALAXY 36 (G-36)        
1 54742U 22170B   26065.27866877 -.00000190  00000+0  00000+0 0  9993
2 54742   0.0187 136.7972 0002101 262.6147 135.8959  1.00272437 11746
GALAXY 37 (G-37)        
1 57493U 23112A   26065.27121540  .00000043  00000+0  00000+0 0  9993
2 57493   0.0146 112.4536 0002041 237.6319 144.5276  1.00271929  9516
